ONEWEB-0128             
1 47274U 20100S   24188.57681130 -.00000241  00000+0 -70502-3 0  9996
2 47274  87.8959 132.1824 0002191  72.4055 287.7312 13.12443171171533
ONEWEB-0129             
1 47275U 20100T   24188.55572144 -.00000574  00000+0 -16321-2 0  9996
2 47275  87.8954 132.1524 0000428  59.1008 301.0163 13.12442198171461
ONEWEB-0130             
1 47276U 20100U   24188.58330262 -.00000092  00000+0 -29039-3 0  9999
2 47276  87.8952 132.1540 0001993  75.9874 284.1476 13.12443212171436
ONEWEB-0131             
1 47277U 20100V   24188.58005995 -.00000169  00000+0 -50404-3 0  9997
2 47277  87.8955 132.1700 0002138  77.4106 282.7262 13.12443661171474
ONEWEB-0132             
1 47278U 20100W   24188.38053904  .00000145  00000+0  36758-3 0  9997
2 47278  87.8955 132.2119 0002322  80.7653 279.3738 13.12441553171343
ONEWEB-0133             
1 47279U 20100X   24188.54923127 -.00000276  00000+0 -80239-3 0  9999
2 47279  87.8951 132.1759 0002165  77.1357 283.0013 13.12440997171524
ONEWEB-0134             
1 47280U 20100Y   24188.36595187  .00000388  00000+0  10434-2 0  9993
2 47280  87.8948 132.1997 0002028  72.0656 288.0694 13.12443150171478
ONEWEB-0135             
1 47281U 20100Z   24188.56546009 -.00000376  00000+0 -10817-2 0  9999
2 47281  87.8953 132.1774 0002162  65.4596 294.6758 13.12443692171527
